*******************************************************************************
JPL/HORIZONS                238 Hypatia (A884 NA)          2023-Sep-04 11:05:11
Rec #:     238 (+COV) Soln.date: 2023-Aug-22_20:32:00   # obs: 4166 (1892-2023)
 
IAU76/J2000 helio. ecliptic osc. elements (au, days, deg., period=Julian yrs):
 
  EPOCH=  2457531.5 ! 2016-May-23.00 (TDB)         Residual RMS= .27817
   EC= .08802688131358086  QR= 2.652975387637527   TP= 2456744.6432419592
   OM= 183.8843045955666   W=  210.7443936253828   IN= 12.41146849931096
   A= 2.909049985441237    MA= 156.3050384310273   ADIST= 3.165124583244947
   PER= 4.96175            N= .198644845           ANGMOM= .029225898
   DAN= 3.12276            DDN= 2.68349            L= 34.0367792
   B= -6.3080849           MOID= 1.66571999        TP= 2014-Mar-28.1432419592
 
Asteroid physical parameters (km, seconds, rotational period in hours):
   GM= n.a.                RAD= 77.8295            ROTPER= 8.8749
   H= 8.1                  G= .150                 B-V= .739
                           ALBEDO= .039            STYP= Ch

ASTEROID comments: 
1: soln ref.= JPL#106, OCC=0
2: source=ORB
*******************************************************************************


*******************************************************************************
Ephemeris / API_USER Mon Sep  4 11:05:11 2023 Pasadena, USA      / Horizons
*******************************************************************************
Target body name: 238 Hypatia (A884 NA)           {source: JPL#106}
Center body name: Solar System Barycenter (0)     {source: DE441}
Center-site name: BODY CENTER
*******************************************************************************
Start time      : A.D. 2023-Aug-12 00:00:00.0000 TDB
Stop  time      : A.D. 2023-Aug-13 00:00:00.0000 TDB
Step-size       : 2880 minutes
*******************************************************************************
Center geodetic : 0.0, 0.0, 0.0                   {E-lon(deg),Lat(deg),Alt(km)}
Center cylindric: 0.0, 0.0, 0.0                   {E-lon(deg),Dxy(km),Dz(km)}
Center radii    : (undefined)
Small perturbers: Yes                             {source: SB441-N16}
Output units    : KM-S
Calendar mode   : Mixed Julian/Gregorian
Output type     : GEOMETRIC cartesian states
Output format   : 2 (position and velocity)
Reference frame : Ecliptic of J2000.0
*******************************************************************************
Initial IAU76/J2000 heliocentric ecliptic osculating elements (au, days, deg.):
  EPOCH=  2457531.5 ! 2016-May-23.00 (TDB)         Residual RMS= .27817        
   EC= .08802688131358086  QR= 2.652975387637527   TP= 2456744.6432419592      
   OM= 183.8843045955666   W=  210.7443936253828   IN= 12.41146849931096       
  Equivalent ICRF heliocentric cartesian coordinates (au, au/d):
   X=-3.045917182082815E+00  Y=-7.659222324892887E-01  Z=-1.948410673062642E-01
  VX= 2.033368817898508E-03 VY=-8.904734071493482E-03 VZ=-1.709682034516191E-03
Asteroid physical parameters (km, seconds, rotational period in hours):        
   GM= n.a.                RAD= 77.8295            ROTPER= 8.8749              
   H= 8.1                  G= .150                 B-V= .739                   
                           ALBEDO= .039            STYP= Ch                    
*******************************************************************************
JDTDB
   X     Y     Z
   VX    VY    VZ
*******************************************************************************
$$SOE
2460168.500000000 = A.D. 2023-Aug-12 00:00:00.0000 TDB 
 X = 3.956652252095662E+08 Y =-7.966795617543705E+07 Z = 2.336469843499458E+07
 VX= 2.679184277082855E+00 VY= 1.806097474990826E+01 VZ=-3.930307972799185E+00
$$EOE
*******************************************************************************
 
TIME

  Barycentric Dynamical Time ("TDB" or T_eph) output was requested. This
continuous coordinate time is equivalent to the relativistic proper time
of a clock at rest in a reference frame co-moving with the solar system
barycenter but outside the system's gravity well. It is the independent
variable in the solar system relativistic equations of motion.

  TDB runs at a uniform rate of one SI second per second and is independent
of irregularities in Earth's rotation.
 
CALENDAR SYSTEM

  Mixed calendar mode was active such that calendar dates after AD 1582-Oct-15
(if any) are in the modern Gregorian system. Dates prior to 1582-Oct-5 (if any)
are in the Julian calendar system, which is automatically extended for dates
prior to its adoption on 45-Jan-1 BC.  The Julian calendar is useful for
matching historical dates. The Gregorian calendar more accurately corresponds
to the Earth's orbital motion and seasons. A "Gregorian-only" calendar mode is
available if such physical events are the primary interest.

REFERENCE FRAME AND COORDINATES

  Ecliptic at the standard reference epoch

    Reference epoch: J2000.0
    X-Y plane: adopted Earth orbital plane at the reference epoch
               Note: IAU76 obliquity of 84381.448 arcseconds wrt ICRF X-Y plane
    X-axis   : ICRF
    Z-axis   : perpendicular to the X-Y plane in the directional (+ or -) sense
               of Earth's north pole at the reference epoch.

  Symbol meaning:

    JDTDB    Julian Day Number, Barycentric Dynamical Time
      X      X-component of position vector (km)
      Y      Y-component of position vector (km)
      Z      Z-component of position vector (km)
      VX     X-component of velocity vector (km/sec)                           
      VY     Y-component of velocity vector (km/sec)                           
      VZ     Z-component of velocity vector (km/sec)                           

ABERRATIONS AND CORRECTIONS

 Geometric state vectors have NO corrections or aberrations applied.

Computations by ...

    Solar System Dynamics Group, Horizons On-Line Ephemeris System
    4800 Oak Grove Drive, Jet Propulsion Laboratory
    Pasadena, CA  91109   USA

    General site: https://ssd.jpl.nasa.gov/
    Mailing list: https://ssd.jpl.nasa.gov/email_list.html
    System news : https://ssd.jpl.nasa.gov/horizons/news.html
    User Guide  : https://ssd.jpl.nasa.gov/horizons/manual.html
    Connect     : browser        https://ssd.jpl.nasa.gov/horizons/app.html#/x
                  API            https://ssd-api.jpl.nasa.gov/doc/horizons.html
                  command-line   telnet ssd.jpl.nasa.gov 6775
                  e-mail/batch   https://ssd.jpl.nasa.gov/ftp/ssd/hrzn_batch.txt
                  scripts        https://ssd.jpl.nasa.gov/ftp/ssd/SCRIPTS
    Author      : Jon.D.Giorgini@jpl.nasa.gov
*******************************************************************************
